0 FENGYUN 1C DEB
1 32188U 99025CUJ 13281.82125582  .00004552  00000-0  22928-2 0  1808
2 32188 099.0526 297.7980 0089034 056.0141 304.9125 14.14814834320140
0 FENGYUN 1C DEB
1 32188U 99025CUJ 13283.23564403  .00004651  00000-0  23416-2 0  1818
2 32188 099.0487 299.2251 0088940 050.1805 310.7288 14.14830041320346
0 FENGYUN 1C DEB
1 32188U 99025CUJ 13289.81232757  .00005623  00000-0  28298-2 0  1826
2 32188 099.0534 305.9040 0085556 033.4878 327.6668 14.14915394321271
0 FENGYUN 1C DEB
1 32188U 99025CUJ 13293.27718495  .00005777  00000-0  28976-2 0  1833
2 32188 099.0476 309.4183 0088264 020.6367 339.9083 14.14958433321765
0 FENGYUN 1C DEB
1 32188U 99025CUJ 13294.26713511  .00006052  00000-0  30276-2 0  1841
2 32188 099.0413 310.4160 0090529 016.0665 344.4057 14.14975670321900
